HORYU-4                 
1 41340U 16012D   20259.90731004  .00000393  00000-0  22947-4 0  9997
2 41340  31.0048 115.7217 0013988 325.7722  34.2011 15.01554330251489
E-ST@R-II               
1 41459U 16025D   20259.79132794  .00001515  00000-0  80090-4 0  9990
2 41459  98.1118  14.5373 0162977 267.5511  90.7045 15.06630597241043
AAUSAT 4                
1 41460U 16025E   20259.78772310  .00001779  00000-0  90328-4 0  9992
2 41460  98.1088  17.1929 0151792 255.2248 103.2111 15.09023434241268
BEESAT-4                
1 41619U 16040W   20259.69988488  .00001088  00000-0  47440-4 0  9990
2 41619  97.3112 317.0676 0010033 213.7052 146.3549 15.24220542223144
CANX-7                  
1 41788U 16059F   20259.82565023  .00005476  00000-0  73641-3 0  9994
2 41788  98.2578 350.0412 0023102  20.7058 339.5048 14.79501834213172
RAVAN                   
1 41849U 16067B   20259.88306450 -.00000232  00000-0 -14116-4 0  9994
2 41849  97.9420  11.3149 0007276 312.5725  47.4882 14.98636886210167
CELTEE 1                
1 41850U 16067C   20259.82855378 -.00000127  00000-0 -56466-5 0  9996
2 41850  97.9334   8.7144 0007914 312.6826  47.3727 14.97219962210023
OPTICUBE 04             
1 41851U 16067D   20259.84174517  .00000262  00000-0  28134-4 0  9996
2 41851  97.9322   8.2964 0007688 315.1001  44.9597 14.96948491210008
AEROCUBE 8D             
1 41852U 16067E   20259.85820413  .00000735  00000-0  69278-4 0  9990
2 41852  97.9336   8.1547 0008244 317.0903  42.9674 14.96956686209985
AEROCUBE 8C             
1 41853U 16067F   20259.89187966 -.00000147  00000-0 -75101-5 0  9996
2 41853  97.9324   8.0852 0009102 315.9427  44.1068 14.96916869209983
PROMETHEUS 2-1          
1 41854U 16067G   20259.84144138  .00000462  00000-0  45165-4 0  9990
2 41854  97.9332   8.4211 0009020 313.9590  46.0887 14.97260123209991
PROMETHEUS 2-3          
1 41855U 16067H   20259.84131209  .00000462  00000-0  45149-4 0  9998
2 41855  97.9334   8.4582 0009217 314.2543  45.7921 14.97269116209991
INS-1B                  
1 41954U 17008G   20259.90399632  .00000975  00000-0  41936-4 0  9996
2 41954  97.3464 322.6556 0008508 353.4149   6.6976 15.24978774199150
BGUSAT                  
1 41999U 17008BD  20259.73393321  .00001772  00000-0  67865-4 0  9990
2 41999  97.3589 327.1535 0007550   4.0594 356.0706 15.27838264198731
DIDO-2                  
1 42000U 17008BE  20259.68971830  .00000693  00000-0  30937-4 0  9996
2 42000  97.3471 322.9156 0008589  14.0769 346.0706 15.24615929198518
PEASSS                  
1 42015U 17008BV  20259.92658380  .00000901  00000-0  38058-4 0  9995
2 42015  97.3499 324.9363 0006564  19.5869 340.5620 15.25793717199145
AL-FARABI 1             
1 42016U 17008BW  20259.76538180  .00001167  00000-0  47192-4 0  9997
2 42016  97.3530 325.9757 0006370  19.6490 340.4993 15.26685582199307
NAYIF-1 (EO-88)         
1 42017U 17008BX  20259.74164371  .00001198  00000-0  48320-4 0  9991
2 42017  97.3526 325.9623 0006412  19.0440 341.1038 15.26728493199320
UCLSAT                  
1 42765U 17036A   20259.72397483  .00000967  00000-0  43067-4 0  9998
2 42765  97.2923 311.5067 0012877  71.5004 288.7631 15.23707975180328
LITUANICASAT-2          
1 42768U 17036D   20259.66518088  .00001698  00000-0  71944-4 0  9997
2 42768  97.2984 311.5723 0015983  61.8798 298.4052 15.24380442179588
AALTO-1                 
1 42775U 17036L   20259.85828619  .00000605  00000-0  29409-4 0  9996
2 42775  97.2897 309.1947 0015342  65.2016 295.0814 15.21962878179428
URSA MAIOR              
1 42776U 17036M   20259.90217582  .00000656  00000-0  31497-4 0  9990
2 42776  97.2909 309.5617 0015136  64.8049 295.4755 15.22155972179443
COMPASS 2               
1 42777U 17036N   20259.63226635  .00001357  00000-0  58474-4 0  9993
2 42777  97.2970 311.9220 0013673  63.7236 296.5405 15.24172832179539
DIAMOND RED             
1 42783U 17036U   20259.89157747  .00000783  00000-0  36161-4 0  9996
2 42783  97.2922 310.8428 0013602  72.9890 287.2836 15.22988667179513
PEGASUS                 
1 42784U 17036V   20259.89925350  .00000902  00000-0  40723-4 0  9992
2 42784  97.2928 311.3299 0013435  71.8336 288.4363 15.23388095179540
DIAMOND GREEN           
1 42785U 17036W   20259.89040904  .00000779  00000-0  35994-4 0  9992
2 42785  97.2925 310.8800 0013519  73.6085 286.6637 15.22984006179585
DIAMOND BLUE            
1 42786U 17036X   20259.88957169  .00000786  00000-0  36267-4 0  9994
2 42786  97.2924 310.8739 0013359  73.8525 286.4181 15.22988716179583
NUDTSAT                 
1 42787U 17036Y   20259.94177636  .00001582  00000-0  66520-4 0  9995
2 42787  97.2968 312.9828 0012816  63.8571 296.3978 15.24788174179482
SUCHAI                  
1 42788U 17036Z   20259.88994646  .00001080  00000-0  47422-4 0  9990
2 42788  97.2936 311.9953 0012945  70.3561 289.9073 15.23971177179650
SKCUBE                  
1 42789U 17036AA  20259.68312484  .00001004  00000-0  44515-4 0  9999
2 42789  97.2931 311.6180 0012849  71.3795 288.8837 15.23798246179535
VZLUSAT-1               
1 42790U 17036AB  20259.86607566  .00001326  00000-0  56268-4 0  9994
2 42790  97.2957 312.9024 0012286  68.6573 291.5975 15.24766404179620
ROBUSTA-1B              
1 42792U 17036AD  20259.62549520  .00001092  00000-0  47875-4 0  9999
2 42792  97.2933 311.8421 0012438  71.9220 288.3371 15.23997656179550
CICERO 6                
1 42793U 17036AE  20259.71856860  .00000699  00000-0  32342-4 0  9993
2 42793  97.2908 311.2190 0011817  74.1971 286.0568 15.23280613179605
D-SAT                   
1 42794U 17036AF  20259.88972287  .00000265  00000-0  28008-4 0  9997
2 42794  97.4880 288.0402 0127525  63.4957 297.9274 14.91318385176179
CORVUS BC2              
1 42846U 17042X   20259.90521555  .00000032  00000-0  83386-5 0  9996
2 42846  97.5090 139.3224 0009180 345.6811  14.4147 14.92136437172894
CORVUS BC1              
1 42847U 17042Y   20259.62654086  .00000227  00000-0  27453-4 0  9990
2 42847  97.5093 139.2428 0008822 346.0768  14.0207 14.92238207172858
MIRATA                  
1 43015U 17073C   20259.81483800  .00000649  00000-0  54748-4 0  9992
2 43015  97.7122 168.5815 0254072 113.6128 249.1982 14.79782776152583
MAKERSAT 0              
1 43016U 17073D   20259.73620869  .00000444  00000-0  39106-4 0  9996
2 43016  97.7157 168.6670 0256997 115.1655 247.6448 14.79312174152549
DELLINGR (RBLE)         
1 43021U 98067NJ  20259.20374114  .00019725  00000-0  14478-3 0  9991
2 43021  51.6343 180.4006 0002104  76.4873 283.6360 15.73136704160984
AEROCUBE 7B (OCSD B)    
1 43042U 17071F   20259.66353651  .00003381  00000-0  81480-4 0  9992
2 43042  51.6389 343.7179 0004691  21.7882 338.3303 15.44207773156318
AEROCUBE 7C (OCSD C)    
1 43043U 17071G   20259.66842971  .00003349  00000-0  80863-4 0  9999
2 43043  51.6389 343.7658 0004949  25.4179 334.7050 15.44182600156283
CHEFSAT                 
1 43044U 17071H   20259.61724147  .00007345  00000-0  13819-3 0  9995
2 43044  51.6382 325.7392 0004843  30.9682 329.1591 15.49654452156524
ASGARDIA 1              
1 43049U 17071N   20259.66037589  .00003102  00000-0  75541-4 0  9990
2 43049  51.6403 343.0468 0002771  42.6978 317.4223 15.44191237156294
ISARA                   
1 43050U 17071P   20259.92154881  .00006037  00000-0  11988-3 0  9990
2 43050  51.6366 327.6257 0002841  42.6409 317.4799 15.48451944156527
PROPCUBE 2 (FAUNA)      
1 43052U 17071R   20259.48940767  .00003377  00000-0  80103-4 0  9999
2 43052  51.6392 341.9210 0002735  40.0923 320.0265 15.44691863156284
CORVUS BC3              
1 43118U 18004H   20259.74193116  .00000665  00000-0  30819-4 0  9992
2 43118  97.4369 329.2497 0012001  95.3136 264.9471 15.23488407148743
MICROMAS-2A             
1 43131U 18004W   20259.77939686  .00001515  00000-0  62513-4 0  9991
2 43131  97.4425 331.3518 0010805  93.5438 266.7036 15.25560631148866
SPACEBEE-4              
1 43139U 18004AE  20259.79901658  .00002324  00000-0  90464-4 0  9994
2 43139  97.4468 332.7820 0010148  94.2731 265.9667 15.26977878148942
SPACEBEE-3              
1 43140U 18004AF  20259.75307809  .00002995  00000-0  11237-3 0  9994
2 43140  97.4488 333.5725 0009798  93.2342 267.0018 15.27976545148983
SPACEBEE-2              
1 43141U 18004AG  20259.77916889  .00003218  00000-0  11932-3 0  9992
2 43141  97.4501 333.9178 0009734  92.4997 267.7356 15.28317058149008
SPACEBEE-1              
1 43142U 18004AH  20259.85570650  .00003297  00000-0  12072-3 0  9997
2 43142  97.4507 334.3118 0009703  91.9346 268.3005 15.28715171149020
CICERO 7                
1 43143U 18004AJ  20259.77891695  .00001439  00000-0  59511-4 0  9990
2 43143  97.4402 331.5116 0009034 101.1530 259.0724 15.25577149148884
GOMX-4B                 
1 43196U 18015E   20259.87704459  .00000301  00000-0  15172-4 0  9994
2 43196  97.4499  27.7877 0019635 141.7472 218.5162 15.24436212145673
GOMX-4A                 
1 43197U 18015F   20259.82929229  .00000620  00000-0  27942-4 0  9996
2 43197  97.4487  27.8625 0020116 143.3764 339.9684 15.24626842145689
UBAKUSAT                
1 43467U 98067NQ  20259.16129906  .00047139  00000-0  24037-3 0  9999
2 43467  51.6339 178.4260 0002455  98.2636 261.8644 15.80895236134276
CUBERRT                 
1 43546U 98067NU  20256.79904374  .00019231  00000-0  11453-3 0  9993
2 43546  51.6318 191.9489 0002741  79.0219 281.1090 15.77981989124014
TEMPEST-D               
1 43547U 98067NV  20259.36455177  .00005933  00000-0  67927-4 0  9994
2 43547  51.6351 217.5786 0005230  42.0765 318.0630 15.63733301123588
RAINCUBE                
1 43548U 98067NW  20259.20087790  .00052207  00000-0  27784-3 0  9992
2 43548  51.6293 186.9145 0004828  92.7899 267.3655 15.79904722124425
HALOSAT                 
1 43549U 98067NX  20259.20095995  .00048756  00000-0  27709-3 0  9990
2 43549  51.6337 188.5452 0004717  92.6996 267.4545 15.78479824123964
